QIANFAN-49              
1 62250U 24232P   25284.32982682  .00000139  00000+0  19672-3 0  9999
2 62250  89.0017  47.5192 0014403  22.7716 337.4072 13.50977668 59414
QIANFAN-50              
1 62251U 24232Q   25284.35452693  .00000135  00000+0  19097-3 0  9994
2 62251  89.0018  47.5214 0016090  23.3020 336.8857 13.50978253 59448
QIANFAN-51              
1 62252U 24232R   25284.33806191  .00000153  00000+0  21861-3 0  9991
2 62252  89.0014  47.5208 0013721  28.1322 332.0568 13.50975144 59436
QIANFAN-52              
1 62253U 24232S   25284.29276315  .00000144  00000+0  20448-3 0  9996
2 62253  89.0009  47.4013 0015477  19.6987 340.4759 13.50977635 59517
QIANFAN-53              
1 62254U 24232T   25284.34632861  .00000138  00000+0  19457-3 0  9996
2 62254  89.0019  47.4958 0014396  21.1646 339.0098 13.50973409 59487
QIANFAN-54              
1 62255U 24232U   25284.31336117  .00000145  00000+0  20665-3 0  9990
2 62255  89.0010  47.1830 0003592  77.2373 282.9180 13.50975568 90986
QIANFAN-55              
1 62785U 25016A   25284.26533465  .00000057  00000+0  69063-4 0  9996
2 62785  88.9743 109.6639 0017668 163.5640 196.6088 13.50967172 38758
QIANFAN-56              
1 62786U 25016B   25284.28182659  .00000071  00000+0  91338-4 0  9990
2 62786  88.9718 109.5155 0016270 165.4399 194.7224 13.50975397 38808
